H1 CPF  1  MCC 2022 11 14 14  8181 larets
H2  0304206 5557    27944 2022 11 13 23 45 00 2022 11 18 23 57 00   180 1 1  0 0 0
H9
10 0 59898 73980.000000 0       829174.105     -1811791.497      6761702.246
10 0 59898 74160.000000 0       616489.696     -3082084.091      6309021.034
10 0 59898 74340.000000 0       349547.780     -4233729.956      5624705.592
10 0 59898 74520.000000 0        41746.551     -5223345.948      4733665.729
10 0 59898 74700.000000 0      -290944.600     -6013778.515      3668482.468
10 0 59898 74880.000000 0      -630751.541     -6575580.602      2468242.862
10 0 59898 75060.000000 0      -958973.563     -6888190.205      1177097.874
10 0 59898 75240.000000 0     -1256928.094     -6940751.243      -157398.797
10 0 59898 75420.000000 0     -1506914.597     -6732524.322     -1486110.355
10 0 59898 75600.000000 0     -1693137.803     -6272855.951     -2760200.147
10 0 59898 75780.000000 0     -1802544.662     -5580720.101     -3932987.632
10 0 59898 75960.000000 0     -1825531.628     -4683858.522     -4961694.092
10 0 59898 76140.000000 0     -1756485.065     -3617576.689     -5808996.111
10 0 59898 76320.000000 0     -1594134.090     -2423274.419     -6444334.824
10 0 59898 76500.000000 0     -1341704.277     -1146783.306     -6844948.890
10 0 59898 76680.000000 0     -1006871.752       163413.224     -6996608.199
10 0 59898 76860.000000 0      -601524.138      1458005.998     -6894048.415
10 0 59898 77040.000000 0      -141336.389      2688675.426     -6541112.838
10 0 59898 77220.000000 0       354822.485      3809850.779     -5950608.462
10 0 59898 77400.000000 0       865640.207      4780370.144     -5143875.158
10 0 59898 77580.000000 0      1368243.358      5564986.807     -4150069.814
10 0 59898 77760.000000 0      1839182.282      6135675.369     -3005175.105
10 0 59898 77940.000000 0      2255481.153      6472680.270     -1750748.963
10 0 59898 78120.000000 0      2595707.914      6565258.986      -432446.209
10 0 59898 78300.000000 0      2841011.817      6412071.684       901642.908
10 0 59898 78480.000000 0      2976073.387      6021189.039      2202766.382
10 0 59898 78660.000000 0      2989917.704      5409717.967      3423321.033
10 0 59898 78840.000000 0      2876550.016      4603060.299      4518625.259
10 0 59898 79020.000000 0      2635377.517      3633838.372      5448579.679
10 0 59898 79200.000000 0      2271389.627      2540538.518      6179137.268
10 0 59898 79380.000000 0      1795102.914      1365955.036      6683530.429
10 0 59898 79560.000000 0      1222268.591       155496.054      6943230.830
10 0 59898 79740.000000 0       573352.331     -1044577.392      6948609.656
10 0 59898 79920.000000 0      -127194.205     -2188919.813      6699296.684
10 0 59898 80100.000000 0      -851852.749     -3234824.614      6204218.417
10 0 59898 80280.000000 0     -1571113.824     -4143836.733      5481307.598
10 0 59898 80460.000000 0     -2254671.436     -4883199.176      4556900.510
10 0 59898 80640.000000 0     -2872708.818     -5427093.601      3464825.518
10 0 59898 80820.000000 0     -3397214.880     -5757611.260      2245180.645
10 0 59898 81000.000000 0     -3803260.021     -5865395.416       942845.109
10 0 59898 81180.000000 0     -4070170.711     -5749925.530      -394214.842
10 0 59898 81360.000000 0     -4182540.111     -5419423.049     -1716777.955
10 0 59898 81540.000000 0     -4131016.536     -4890377.787     -2976254.826
10 0 59898 81720.000000 0     -3912824.844     -4186719.819     -4126533.695
10 0 59898 81900.000000 0     -3531997.113     -3338693.906     -5125694.702
10 0 59898 82080.000000 0     -2999311.879     -2381507.419     -5937523.712
10 0 59898 82260.000000 0     -2331954.724     -1353824.824     -6532775.165
10 0 59898 82440.000000 0     -1552922.368      -296182.404     -6890153.164
10 0 59898 82620.000000 0      -690201.288       750608.121     -6996989.751
10 0 59898 82800.000000 0       224239.891      1747005.336     -6849626.333
10 0 59898 82980.000000 0      1155615.440      2656192.830     -6453507.410
10 0 59898 83160.000000 0      2067617.998      3445407.989     -5822988.371
10 0 59898 83340.000000 0      2923805.968      4087106.403     -4980850.624
10 0 59898 83520.000000 0      3689037.384      4559925.480     -3957536.584
10 0 59898 83700.000000 0      4330904.582      4849418.803     -2790112.332
10 0 59898 83880.000000 0      4821112.104      4948523.778     -1520973.011
10 0 59898 84060.000000 0      5136731.504      4857736.363      -196328.364
10 0 59898 84240.000000 0      5261268.948      4584977.616      1135482.215
10 0 59898 84420.000000 0      5185484.857      4145154.980      2425773.419
10 0 59898 84600.000000 0      4907928.578      3559436.653      3627326.727
10 0 59898 84780.000000 0      4435146.113      2854268.003      4696152.414
10 0 59898 84960.000000 0      3781554.437      2060185.655      5593116.473
10 0 59898 85140.000000 0      2968990.189      1210492.402      6285374.271
10 0 59898 85320.000000 0      2025955.363       339853.410      6747554.005
10 0 59898 85500.000000 0       986602.548      -517118.335      6962660.181
10 0 59898 85680.000000 0      -110508.048     -1327235.313      6922687.781
10 0 59898 85860.000000 0     -1223841.720     -2060025.126      6628921.456
10 0 59898 86040.000000 0     -2310460.626     -2688886.311      6091910.919
10 0 59898 86220.000000 0     -3327679.559     -3192070.474      5331131.708
10 0 59899     0.000000 0     -4234768.635     -3553466.801      4374331.820
10 0 59899   180.000000 0     -4994629.704     -3763149.002      3256551.081
10 0 59899   360.000000 0     -5575364.512     -3817657.799      2018850.760
10 0 59899   540.000000 0     -5951668.220     -3720007.096       706789.758
10 0 59899   720.000000 0     -6105968.757     -3479403.435      -631302.369
10 0 59899   900.000000 0     -6029246.451     -3110690.542     -1946175.873
10 0 59899  1080.000000 0     -5721482.948     -2633547.121     -3189549.191
10 0 59899  1260.000000 0     -5191718.124     -2071486.335     -4315934.635
10 0 59899  1440.000000 0     -4457726.231     -1450718.047     -5284321.148
10 0 59899  1620.000000 0     -3545338.149      -798935.882     -6059648.746
10 0 59899  1800.000000 0     -2487452.184      -144090.093     -6614022.720
10 0 59899  1980.000000 0     -1322790.731       486794.023     -6927638.110
10 0 59899  2160.000000 0       -94460.032      1068703.247     -6989405.158
10 0 59899  2340.000000 0      1151630.267      1579597.669     -6797279.811
10 0 59899  2520.000000 0      2368447.371      2001219.142     -6358309.765
10 0 59899  2700.000000 0      3509575.486      2319728.717     -5688388.043
10 0 59899  2880.000000 0      4530956.764      2526151.420     -4811716.492
10 0 59899  3060.000000 0      5392583.819      2616618.532     -3759993.012
10 0 59899  3240.000000 0      6060084.714      2592397.669     -2571325.516
10 0 59899  3420.000000 0      6506132.873      2459706.875     -1288899.404
10 0 59899  3600.000000 0      6711614.881      2229315.858        40571.306
10 0 59899  3780.000000 0      6666487.646      1915947.051      1368553.007
10 0 59899  3960.000000 0      6370275.038      1537505.201      2646487.370
10 0 59899  4140.000000 0      5832180.169      1114174.192      3827601.324
10 0 59899  4320.000000 0      5070794.318       667424.389      4868650.339
10 0 59899  4500.000000 0      4113422.807       218985.467      5731514.690
10 0 59899  4680.000000 0      2995065.713      -210165.183      6384592.263
10 0 59899  4860.000000 0      1757100.857      -600748.990      6803935.019
10 0 59899  5040.000000 0       445733.839      -936027.822      6974106.378
10 0 59899  5220.000000 0      -889737.341     -1202511.769      6888737.957
10 0 59899  5400.000000 0     -2198777.175     -1390504.241      6550767.874
10 0 59899  5580.000000 0     -3431524.114     -1494463.241      5972361.882
10 0 59899  5760.000000 0     -4540705.930     -1513167.444      5174523.061
10 0 59899  5940.000000 0     -5483500.665     -1449685.313      4186376.782
10 0 59899  6120.000000 0     -6223256.485     -1311140.620      3044135.965
10 0 59899  6300.000000 0     -6730990.839     -1108281.671      1789782.181
10 0 59899  6480.000000 0     -6986605.040      -854875.661       469501.973
10 0 59899  6660.000000 0     -6979734.569      -566954.739      -868071.537
10 0 59899  6840.000000 0     -6710181.636      -261953.637     -2173722.981
10 0 59899  7020.000000 0     -6187910.435        42211.971     -3399533.312
10 0 59899  7200.000000 0     -5432614.301       328075.452     -4500689.061
10 0 59899  7380.000000 0     -4472876.874       579510.100     -5437137.001
10 0 59899  7560.000000 0     -3344990.094       782532.945     -6175013.131
10 0 59899  7740.000000 0     -2091500.230       925982.187     -6687803.811
10 0 59899  7920.000000 0      -759557.816      1002043.312     -6957216.737
10 0 59899  8100.000000 0       600861.794      1006608.976     -6973753.925
10 0 59899  8280.000000 0      1938802.228       939461.528     -6736992.906
10 0 59899  8460.000000 0      3204194.655       804275.733     -6255581.981
10 0 59899  8640.000000 0      4349694.346       608442.464     -5546938.151
10 0 59899  8820.000000 0      5332427.791       362718.217     -4636661.645
10 0 59899  9000.000000 0      6115604.152        80713.335     -3557673.989
10 0 59899  9180.000000 0      6669928.010      -221764.817     -2349086.595
10 0 59899  9360.000000 0      6974753.273      -527488.440     -1054827.441
10 0 59899  9540.000000 0      7018916.462      -818670.862       277940.082
10 0 59899  9720.000000 0      6801199.109     -1077871.658      1600544.610
10 0 59899  9900.000000 0      6330390.109     -1288901.366      2864612.506
10 0 59899 10080.000000 0      5624934.919     -1437676.404      4023873.952
10 0 59899 10260.000000 0      4712189.199     -1512979.714      5035882.778
10 0 59899 10440.000000 0      3627320.216     -1507088.648      5863580.342
99
